[{"OBJECT_NAME":"STARLINK-32223","OBJECT_ID":"2024-138U","EPOCH":"2026-03-09T22:22:21.784512","MEAN_MOTION":15.30180186,"ECCENTRICITY":9.76e-5,"INCLINATION":53.1622,"RA_OF_ASC_NODE":308.5539,"ARG_OF_PERICENTER":63.0345,"MEAN_ANOMALY":297.0755,"EPHEMERIS_TYPE":0,"CLASSIFICATION_TYPE":"U","NORAD_CAT_ID":60373,"ELEMENT_SET_NO":999,"REV_AT_EPOCH":9056,"BSTAR":-3.4456639e-5,"MEAN_MOTION_DOT":-1.379e-5,"MEAN_MOTION_DDOT":0},{"OBJECT_NAME":"FREGAT DEB","OBJECT_ID":"2011-037AT","EPOCH":"2026-02-27T07:33:41.728320","MEAN_MOTION":13.26314688,"ECCENTRICITY":0.10195687,"INCLINATION":51.565,"RA_OF_ASC_NODE":116.2128,"ARG_OF_PERICENTER":148.3059,"MEAN_ANOMALY":218.3568,"EPHEMERIS_TYPE":0,"CLASSIFICATION_TYPE":"U","NORAD_CAT_ID":45651,"ELEMENT_SET_NO":999,"REV_AT_EPOCH":25946,"BSTAR":0.0036558398,"MEAN_MOTION_DOT":0.00039113,"MEAN_MOTION_DDOT":0}]
